EPOCH,NORAD_CAT_ID,MEAN_MOTION,ECCENTRICITY,INCLINATION,RA_OF_ASC_NODE,ARG_OF_PERICENTER,MEAN_ANOMALY,MEAN_MOTION_DOT,BSTAR,TLE_LINE1,TLE_LINE2
2023-06-13 11:54:18,50803,15.08833193,0.0001048,53.2176,339.1588,106.0377,254.0731,0.00001867,0.00013536,1 50803U 22001A   23164.49604645  .00001867  00000-0  13536-3 0  9998,2 50803  53.2176 339.1588 0001048 106.0377 254.0731 15.08833193 80681
2023-06-13 18:15:50,50803,15.08839063,0.0001026,53.2179,337.9696,104.3447,255.7659,0.00002364,0.00016654,1 50803U 22001A   23164.76100229  .00002364  00000-0  16654-3 0  9994,2 50803  53.2179 337.9696 0001026 104.3447 255.7659 15.08839063 79457
2023-06-13 18:15:50,50803,15.08839063,0.0001026,53.2179,337.9696,104.3447,255.7659,0.00002364,0.00016654,1 50803U 22001A   23164.76100229  .00002364  00000-0  16654-3 0  9994,2 50803  53.2179 337.9696 0001026 104.3447 255.7659 15.08839063 80729
2023-06-14 11:45:05,50803,15.08836175,0.0001068,53.2174,334.7014,97.7103,262.401,0.00000351,0.000040129,1 50803U 22001A   23165.48964814  .00000351  00000-0  40129-4 0  9991,2 50803  53.2174 334.7014 0001068  97.7103 262.4010 15.08836175 80832
2023-06-14 11:45:05,50803,15.08836175,0.0001068,53.2174,334.7014,97.7103,262.401,0.00000351,0.000040129,1 50803U 22001A   23165.48964814  .00000351  00000-0  40129-4 0  9991,2 50803  53.2174 334.7014 0001068  97.7103 262.4010 15.08836175 79560
2023-06-14 19:42:01,50803,15.08822239,0.0001132,53.2168,333.2175,83.3557,276.7564,0.00004053,0.00027269,1 50803U 22001A   23165.82085153  .00004053  00000-0  27269-3 0  9991,2 50803  53.2168 333.2175 0001132  83.3557 276.7564 15.08822239 79615
2023-06-15 11:35:52,50803,15.08833794,0.0001071,53.2166,330.2417,96.6574,263.454,0.00000189,0.000029956,1 50803U 22001A   23166.48325207  .00000189  00000-0  29956-4 0  9993,2 50803  53.2166 330.2417 0001071  96.6574 263.4540 15.08833794 79713
2023-06-15 17:57:25,50803,15.08842144,0.0001048,53.2174,329.0523,94.248,265.8631,0.0000086,0.000072115,1 50803U 22001A   23166.74820606  .00000860  00000-0  72115-4 0  9996,2 50803  53.2174 329.0523 0001048  94.2480 265.8631 15.08842144 79750
2023-06-15 17:57:25,50803,15.08842144,0.0001048,53.2174,329.0523,94.248,265.8631,0.0000086,0.000072115,1 50803U 22001A   23166.74820606  .00000860  00000-0  72115-4 0  9996,2 50803  53.2174 329.0523 0001048  94.2480 265.8631 15.08842144 81023
2023-06-16 09:51:16,50803,15.08840605,0.0001022,53.2172,326.0781,83.1081,277.0027,0.00001187,0.000092671,1 50803U 22001A   23167.41060767  .00001187  00000-0  92671-4 0  9997,2 50803  53.2172 326.0781 0001022  83.1081 277.0027 15.08840605 79852
2023-06-16 17:48:10,50803,15.088558,0.0001027,53.2173,324.5918,86.5084,273.6026,0.00003236,0.00022118,1 50803U 22001A   23167.74179396  .00003236  00000-0  22118-3 0  9997,2 50803  53.2173 324.5918 0001027  86.5084 273.6026 15.08855800 79903
2023-06-16 17:48:10,50803,15.088558,0.0001027,53.2173,324.5918,86.5084,273.6026,0.00003236,0.00022118,1 50803U 22001A   23167.74179396  .00003236  00000-0  22118-3 0  9997,2 50803  53.2173 324.5918 0001027  86.5084 273.6026 15.08855800 81175
2023-06-17 12:52:50,50803,15.08830424,0.0000782,53.218,321.0236,75.2138,284.8941,0.00000374,0.000041597,1 50803U 22001A   23168.53669803  .00000374  00000-0  41597-4 0  9995,2 50803  53.2180 321.0236 0000782  75.2138 284.8941 15.08830424 81298
2023-06-17 16:03:36,50803,15.08826319,0.0001078,53.2167,320.428,71.7391,288.3718,-0.00002965,-0.00016836,1 50803U 22001A   23168.66917707 -.00002965  00000-0 -16836-3 0  9995,2 50803  53.2167 320.4280 0001078  71.7391 288.3718 15.08826319 80047
2023-06-18 09:32:51,50803,15.08831696,0.0000971,53.2172,317.1565,70.3865,289.7232,-0.00000258,0.000001882,1 50803U 22001A   23169.39781984 -.00000258  00000-0  18820-5 0  9991,2 50803  53.2172 317.1565 0000971  70.3865 289.7232 15.08831696 80156
2023-06-18 19:05:09,50803,15.08845315,0.0001049,53.2169,315.3729,69.6828,290.4277,0.00001568,0.00011658,1 50803U 22001A   23169.79525423  .00001568  00000-0  11658-3 0  9993,2 50803  53.2169 315.3729 0001049  69.6828 290.4277 15.08845315 81489
2023-06-19 10:59:01,50803,15.08841114,0.0001105,53.2169,312.4002,58.5293,301.5807,0.00005721,0.00037724,1 50803U 22001A   23170.45765853  .00005721  00000-0  37724-3 0  9998,2 50803  53.2169 312.4002 0001105  58.5293 301.5807 15.08841114 81584
2023-06-19 12:34:24,50803,15.08843223,0.0001148,53.2171,312.103,54.9327,305.1772,0.0000601,0.00039535,1 50803U 22001A   23170.52389745  .00006010  00000-0  39535-3 0  9992,2 50803  53.2171 312.1030 0001148  54.9327 305.1772 15.08843223 80325
2023-06-19 17:20:33,50803,15.0885187,0.0001032,53.217,311.2098,64.1351,295.9747,0.00007145,0.00046639,1 50803U 22001A   23170.72261234  .00007145  00000-0  46639-3 0  9999,2 50803  53.2170 311.2098 0001032  64.1351 295.9747 15.08851870 81629
2023-06-19 17:20:33,50803,15.0885187,0.0001032,53.217,311.2098,64.1351,295.9747,0.00007145,0.00046639,1 50803U 22001A   23170.72261234  .00007145  00000-0  46639-3 0  9999,2 50803  53.2170 311.2098 0001032  64.1351 295.9747 15.08851870 80358
2023-06-20 09:14:25,50803,15.08840607,0.0001058,53.2168,308.2371,66.9441,293.1663,0.00000315,0.000037877,1 50803U 22001A   23171.38501599  .00000315  00000-0  37877-4 0  9990,2 50803  53.2168 308.2371 0001058  66.9441 293.1663 15.08840607 81728
2023-06-20 09:14:25,50803,15.08840607,0.0001058,53.2168,308.2371,66.9441,293.1663,0.00000315,0.000037877,1 50803U 22001A   23171.38501599  .00000315  00000-0  37877-4 0  9990,2 50803  53.2168 308.2371 0001058  66.9441 293.1663 15.08840607 80457
2023-06-20 18:46:43,50803,15.08850531,0.0000905,53.2174,306.4513,84.5725,275.537,0.00000664,0.000059777,1 50803U 22001A   23171.78244864  .00000664  00000-0  59777-4 0  9993,2 50803  53.2174 306.4513 0000905  84.5725 275.5370 15.08850531 81786
2023-06-20 18:46:43,50803,15.08850531,0.0000905,53.2174,306.4513,84.5725,275.537,0.00000664,0.000059777,1 50803U 22001A   23171.78244864  .00000664  00000-0  59777-4 0  9993,2 50803  53.2174 306.4513 0000905  84.5725 275.5370 15.08850531 80516
2023-06-21 12:15:58,50803,15.0884483,0.000109,53.2169,303.1787,92.2638,267.8479,-0.00000238,0.0000031083,1 50803U 22001A   23172.51109205 -.00000238  00000-0  31083-5 0  9993,2 50803  53.2169 303.1787 0001090  92.2638 267.8479 15.08844830 81893
2023-06-21 18:37:30,50803,15.08848188,0.0000997,53.2175,301.9916,72.4415,287.6686,-0.00000264,0.000001515,1 50803U 22001A   23172.77604963 -.00000264  00000-0  15150-5 0  9998,2 50803  53.2175 301.9916 0000997  72.4415 287.6686 15.08848188 80662
2023-06-22 15:17:32,50803,15.08828362,0.0001014,53.2163,298.1254,91.4495,268.6614,-0.00000576,-0.000018148,1 50803U 22001A   23173.63718031 -.00000576  00000-0 -18148-4 0  9992,2 50803  53.2163 298.1254 0001014  91.4495 268.6614 15.08828362 82069
2023-06-23 00:49:52,50803,15.08818148,0.0001017,53.2167,296.343,85.2644,274.8464,-0.00000865,-0.00003629,1 50803U 22001A   23174.03463117 -.00000865  00000-0 -36290-4 0  9998,2 50803  53.2167 296.3430 0001017  85.2644 274.8464 15.08818148 82129
2023-06-23 18:19:06,50803,15.0882826,0.0001076,53.2174,293.0725,88.3036,271.8079,-0.00000291,-0.00000023487,1 50803U 22001A   23174.76327208 -.00000291  00000-0 -23487-6 0  9997,2 50803  53.2174 293.0725 0001076  88.3036 271.8079 15.08828260 82239
2023-06-24 00:40:38,50803,15.08838603,0.0001079,53.2176,291.8832,90.0054,270.1062,0.00000605,0.000056086,1 50803U 22001A   23175.02822546  .00000605  00000-0  56086-4 0  9998,2 50803  53.2176 291.8832 0001079  90.0054 270.1062 15.08838603 82279
2023-06-24 14:59:06,50803,15.08861688,0.0001115,53.2161,289.2071,93.4917,266.6203,0.00014737,0.00094154,1 50803U 22001A   23175.62438291  .00014737  00000-0  94154-3 0  9992,2 50803  53.2161 289.2071 0001115  93.4917 266.6203 15.08861688 82361
2023-06-25 00:31:25,50803,15.08857419,0.0001233,53.2145,287.4218,96.218,263.8952,0.00007159,0.00046722,1 50803U 22001A   23176.02182124  .00007159  00000-0  46722-3 0  9996,2 50803  53.2145 287.4218 0001233  96.2180 263.8952 15.08857419 82424
2023-06-26 00:22:12,50803,15.08844973,0.0001164,53.2157,282.9626,82.0319,278.0805,0.00011698,0.00075174,1 50803U 22001A   23177.01541899  .00011698  00000-0  75174-3 0  9990,2 50803  53.2157 282.9626 0001164  82.0319 278.0805 15.08844973 82572
2023-06-26 06:43:44,50803,15.08842358,0.0001353,53.2149,281.7726,85.2195,274.8951,0.00004982,0.00033089,1 50803U 22001A   23177.28038078  .00004982  00000-0  33089-3 0  9996,2 50803  53.2149 281.7726 0001353  85.2195 274.8951 15.08842358 82614
2023-06-26 14:40:40,50803,15.08836441,0.0000928,53.2148,280.285,90.1185,269.9913,0.00001868,0.00013542,1 50803U 22001A   23177.61158212  .00001868  00000-0  13542-3 0  9998,2 50803  53.2148 280.2850 0000928  90.1185 269.9913 15.08836441 82660
2023-06-27 12:56:04,50803,15.08847456,0.0000992,53.2151,276.1226,80.892,279.2185,0.00009154,0.00059239,1 50803U 22001A   23178.53894372  .00009154  00000-0  59239-3 0  9993,2 50803  53.2151 276.1226 0000992  80.8920 279.2185 15.08847456 82808
2023-06-28 09:36:05,50803,15.08843522,0.0001027,53.2152,272.257,75.8426,284.268,0.000032,0.00021905,1 50803U 22001A   23179.40006399  .00003200  00000-0  21905-3 0  9999,2 50803  53.2152 272.2570 0001027  75.8426 284.2680 15.08843522 82933
2023-06-29 11:02:15,50803,15.0884026,0.0000999,53.2161,267.4996,77.6639,282.4465,0.0000038,0.000041952,1 50803U 22001A   23180.45990432  .00000380  00000-0  41952-4 0  9997,2 50803  53.2161 267.4996 0000999  77.6639 282.4465 15.08840260 83099
2023-06-30 22:00:45,50803,15.08825978,0.0000753,53.2171,260.9562,102.1884,257.9192,-0.0000081,-0.000032861,1 50803U 22001A   23181.91719241 -.00000810  00000-0 -32861-4 0  9995,2 50803  53.2171 260.9562 0000753 102.1884 257.9192 15.08825978 83319
2023-07-01 09:08:27,50803,15.08832162,0.0000916,53.217,258.8743,97.3044,262.8053,-0.00000559,-0.000017032,1 50803U 22001A   23182.38087140 -.00000559  00000-0 -17032-4 0  9996,2 50803  53.2170 258.8743 0000916  97.3044 262.8053 15.08832162 83380
